OBJECT_NAME,OBJECT_ID,EPOCH,MEAN_MOTION,ECCENTRICITY,INCLINATION,RA_OF_ASC_NODE,ARG_OF_PERICENTER,MEAN_ANOMALY,EPHEMERIS_TYPE,CLASSIFICATION_TYPE,NORAD_CAT_ID,ELEMENT_SET_NO,REV_AT_EPOCH,BSTAR,MEAN_MOTION_DOT,MEAN_MOTION_DDOT
SIRION PATHFINDER-2,2018-099B,2026-05-20T02:24:15.882912,15.14261771,.00097595,97.4266,189.8280,46.3450,313.8589,0,U,43759,999,40837,.18664594E-3,.3352E-4,0
CORVUS BC4,2018-099K,2026-05-20T01:39:11.751264,15.12238592,.0010073,97.4084,183.8747,98.2471,261.9903,0,U,43767,999,40815,.19247637E-3,.3267E-4,0
M2 PATHFINDER,2020-037E,2026-05-19T18:46:54.502464,15.04537414,.00099656,97.8159,330.6972,245.4969,114.5217,0,U,45727,999,32122,.7660919E-4,.101E-4,0
NETSAT-4,2020-068U,2026-05-20T05:53:33.212256,15.42843596,.000735,97.8614,146.2640,71.2517,288.9527,0,U,46504,999,31146,.30295854E-3,.13204E-3,0
NETSAT-3,2020-068V,2026-05-19T23:17:16.301184,15.41613605,.00074552,97.8665,144.2200,84.7945,275.4151,0,U,46505,999,31133,.34632255E-3,.14502E-3,0
NETSAT-1,2020-068W,2026-05-19T23:03:23.095008,15.33884394,.0006991,97.8752,138.8676,104.5342,255.6675,0,U,46506,999,31097,.29636422E-3,.9635E-4,0
NETSAT-2,2020-068X,2026-05-19T22:23:21.697728,15.44683915,.0006258,97.8630,145.7245,94.9408,265.2554,0,U,46507,999,31137,.36879E-3,.17131E-3,0
GREENCUBE (IO-117),2022-080E,2026-05-19T09:23:51.020736,6.42583330,.00088396,70.1431,308.2634,296.5004,63.4749,0,U,53109,999,9021,0,-.3E-7,0
SITRO-AIS 5 (KATYS),2023-091L,2026-05-20T06:11:27.053664,15.28738577,.00114309,97.5069,203.9047,192.9481,167.1467,0,U,57176,999,16007,.3170063E-3,.8798E-4,0
SITRO-AIS 6 (CHIRKIN),2023-091AC,2026-05-20T05:44:25.825056,15.25341274,.0011558,97.5077,203.1502,196.4021,163.6845,0,U,57192,999,16002,.28893435E-3,.7224E-4,0
SITRO-AIS 8 (ANOKHIN),2023-091AD,2026-05-20T06:10:33.637728,15.31291688,.00107421,97.5065,205.3820,188.5139,171.5921,0,U,57193,999,16017,.35180961E-3,.10575E-3,0
SITRO-AIS 7 (FARTUSHNIY),2023-091AE,2026-05-20T05:40:54.525216,15.25042689,.00113859,97.5074,202.9868,197.4540,162.6308,0,U,57194,999,16001,.27657506E-3,.6849E-4,0
SITRO-AIS 10 (BURDAEV),2023-091AK,2026-05-20T06:33:36.963936,15.37443110,.00076877,97.5088,210.1717,162.2417,197.9097,0,U,57199,999,16047,.39987283E-3,.14621E-3,0
SITRO-AIS 9 (SHCHUKIN),2023-091AM,2026-05-20T05:25:34.848192,15.36985043,.00078873,97.5086,209.8747,162.8888,197.2623,0,U,57201,999,16045,.38706338E-3,.13941E-3,0
SITRO-AIS 12 (SMIRENNIY),2023-091AQ,2026-05-20T06:53:20.377824,15.37272867,.00076656,97.5099,210.3868,157.1998,202.9588,0,U,57204,999,16048,.39966215E-3,.14533E-3,0
SITRO-AIS 11 (SHEFFER),2023-091AU,2026-05-20T05:49:42.118176,15.37669549,.000757,97.5096,210.5712,157.2022,202.9560,0,U,57208,999,16049,.41206071E-3,.15181E-3,0
SITRO-AIS 25,2024-039R,2026-05-20T07:14:48.558624,14.93307357,.01472177,95.3916,215.9327,66.0369,295.6192,0,U,59066,999,12056,.24827345E-3,.3186E-4,0
SITRO-AIS 26,2024-039S,2026-05-20T07:11:21.831936,14.93109039,.01475416,95.3917,215.8344,66.5898,295.0764,0,U,59067,999,12055,.24605408E-3,.3143E-4,0
SITRO-AIS 27,2024-039T,2026-05-20T05:03:13.326624,14.93518362,.01464905,95.3918,216.0321,65.5918,296.0514,0,U,59068,999,12056,.24706525E-3,.3182E-4,0
SITRO-AIS 28,2024-039U,2026-05-20T06:08:08.084832,14.93554557,.01463768,95.3919,216.1089,65.2614,296.3765,0,U,59071,999,12057,.20830752E-3,.268E-4,0
GRBBETA,2024-128C,2026-05-19T19:29:31.098336,15.06380239,.00445314,61.9903,315.8018,128.7809,231.7275,0,U,60237,999,10199,.20656614E-3,.2903E-4,0
OOV-CUBE (TUBSAT-30),2024-128F,2026-05-20T00:59:15.853344,15.02613008,.00481625,61.9944,323.7064,127.6319,232.9158,0,U,60240,999,10188,.13318255E-3,.1609E-4,0
ROBUSTA-3A (MEDITERRANEE),2024-128J,2026-05-19T21:15:37.149696,15.11183227,.0045333,61.9869,308.2934,122.6430,237.9051,0,U,60243,999,10214,.35934E-3,.5987E-4,0
LASARSAT,2024-247Q,2026-05-20T04:21:40.815360,15.44470942,.00056843,44.9759,59.3627,171.8355,188.2628,0,U,62391,999,7898,.50705105E-3,.23734E-3,0
CROCUBE,2024-247T,2026-05-20T03:31:26.575968,15.46099852,.00054203,44.9733,57.3164,174.7904,185.3043,0,U,62394,999,7900,.53126487E-3,.26334E-3,0
FORESAIL-1 PRIME,2025-276DS,2026-05-19T15:53:27.007296,15.18409334,.00024446,97.4205,213.4600,166.7371,193.3928,0,U,66778,999,2607,.15098561E-3,.3039E-4,0
KNACKSAT-2,1998-067XZ,2026-05-20T01:48:34.303392,15.57316525,.00121324,51.6305,75.5950,96.2152,264.0222,0,U,67683,999,1589,.47883759E-3,.35425E-3,0
